GOES 1 (SMS-C) [-]      
1 08366U 75100A   22363.48459215 -.00000182  00000+0  00000+0 0  9990
2 08366   7.8035 293.2822 0002626 306.6649 304.1869  1.00239369172370
GOES 2 [-]              
1 10061U 77048A   22362.60216809 -.00000173  00000+0  00000+0 0  9991
2 10061   9.4105 305.0621 0012243  23.1733 157.6595  0.99401936110929
GOES 3 [-]              
1 10953U 78062A   22363.14354973 -.00000117  00000+0  00000+0 0  9991
2 10953   9.7535 309.6891 0000853 168.7206  36.3300  0.99363872115954
GOES 4 [-]              
1 11964U 80074A   22363.13823726 -.00000238  00000+0  00000+0 0  9990
2 11964  10.7281 313.5173 0031899  77.1295  98.6636  0.99233369114879
GOES 5 [-]              
1 12472U 81049A   22363.40358660 -.00000286  00000+0  00000+0 0  9991
2 12472  11.6216 325.0232 0001084 259.9050 311.2312  1.00262690110152
GOES 6 [-]              
1 14050U 83041A   22363.39592389 -.00000253  00000+0  00000+0 0  9999
2 14050  12.2092 330.3712 0002721 163.5672  28.4426  1.00248703203320
GOES 7 [-]              
1 17561U 87022A   22363.21067135 -.00000195  00000+0  00000+0 0  9994
2 17561  14.0756 346.9705 0004009  55.9280 116.1206  0.99908372114315
GOES 8 [-]              
1 23051U 94022A   22363.45299005 -.00000223  00000+0  00000+0 0  9994
2 23051  13.3424  22.8169 0003989  20.2768 340.3272  0.98905665111611
GOES 9 [-]              
1 23581U 95025A   22363.41951869 -.00000216  00000+0  00000+0 0  9997
2 23581  12.8378  23.2179 0004585 123.6470  56.3905  0.98800879100254
GOES 10 [-]             
1 24786U 97019A   22363.25625865  .00000026  00000+0  00000+0 0  9994
2 24786  11.6409  29.4758 0027786 206.5705 169.0114  0.99123119 93526
GOES 11 [-]             
1 26352U 00022A   22363.29007867 -.00000048  00000+0  00000+0 0  9998
2 26352   9.0964  57.7621 0002647 211.9741 316.6981  0.99043360 39932
GOES 12 [-]             
1 26871U 01031A   22363.35754439 -.00000159  00000+0  00000+0 0  9999
2 26871   9.8672  46.8967 0004827 303.4878 239.5882  0.99139554 78212
EWS-G1 (GOES 13) [+]    
1 29155U 06018A   22363.44096128  .00000037  00000+0  00000+0 0  9995
2 29155   1.0781  93.1843 0006279 155.9016  69.1740  1.00276661 60811
GOES 14 [B]             
1 35491U 09033A   22363.50465986 -.00000090  00000+0  00000+0 0  9994
2 35491   0.1216 250.6368 0017601 335.8591 308.8264  1.00269595 49464
GOES 15 [B]             
1 36411U 10008A   22363.54974939  .00000056  00000+0  00000+0 0  9999
2 36411   0.0761 287.6586 0003502 265.5956 334.9668  1.00262008 46964
GOES 16 [+]             
1 41866U 16071A   22363.53313590 -.00000245  00000+0  00000+0 0  9995
2 41866   0.0752 249.2647 0000691  59.7958 265.6365  1.00271109 22428
GOES 17 [+]             
1 43226U 18022A   22363.54244441  .00000101  00000+0  00000+0 0  9994
2 43226   0.0366 192.2143 0000333  88.4359 235.2532  1.00271754 17740
GOES 18 [+]             
1 51850U 22021A   22363.52132963  .00000100  00000+0  00000+0 0  9992
2 51850   0.0327 186.5775 0000934  75.7944 246.3124  1.00271482  3116
